{
  "links" : {
    "next" : "https://api.nasa.gov/neo/rest/v1/feed?start_date=1998-06-09&end_date=1998-06-09&detailed=true&api_key=t0TVs3DtDT2H8Oy2Zy8m2eVrNsAVKAexjcZXUckd",
    "prev" : "https://api.nasa.gov/neo/rest/v1/feed?start_date=1998-06-07&end_date=1998-06-07&detailed=true&api_key=t0TVs3DtDT2H8Oy2Zy8m2eVrNsAVKAexjcZXUckd",
    "self" : "https://api.nasa.gov/neo/rest/v1/feed?start_date=1998-06-08&end_date=1998-06-08&detailed=true&api_key=t0TVs3DtDT2H8Oy2Zy8m2eVrNsAVKAexjcZXUckd"
  },
  "element_count" : 8,
  "near_earth_objects" : {
    "1998-06-08" : [ {
      "links" : {
        "self" : "https://api.nasa.gov/neo/rest/v1/neo/2096590?api_key=t0TVs3DtDT2H8Oy2Zy8m2eVrNsAVKAexjcZXUckd"
      },
      "neo_reference_id" : "2096590",
      "name" : "96590 (1998 XB)",
      "nasa_jpl_url" : "http://ssd.jpl.nasa.gov/sbdb.cgi?sstr=2096590",
      "absolute_magnitude_h" : 16.2,
      "estimated_diameter" : {
        "kilometers" : {
          "estimated_diameter_min" : 1.5295193534,
          "estimated_diameter_max" : 3.4201092472
        },
        "meters" : {
          "estimated_diameter_min" : 1529.5193534422,
          "estimated_diameter_max" : 3420.1092471982
        },
        "miles" : {
          "estimated_diameter_min" : 0.9503989702,
          "estimated_diameter_max" : 2.125156703
        },
        "feet" : {
          "estimated_diameter_min" : 5018.1082755472,
          "estimated_diameter_max" : 11220.8312225778
        }
      },
      "is_potentially_hazardous_asteroid" : false,
      "close_approach_data" : [ {
        "close_approach_date" : "1998-06-08",
        "epoch_date_close_approach" : 897289200000,
        "relative_velocity" : {
          "kilometers_per_second" : "17.2380452017",
          "kilometers_per_hour" : "62056.9627260998",
          "miles_per_hour" : "38559.7833116702"
        },
        "miss_distance" : {
          "astronomical" : "0.4150898237",
          "lunar" : "161.4699401855",
          "kilometers" : "62096552",
          "miles" : "38585008"
        },
        "orbiting_body" : "Earth"
      } ],
      "orbital_data" : {
        "orbit_id" : "328",
        "orbit_determination_date" : "2017-09-27 06:51:50",
        "orbit_uncertainty" : "0",
        "minimum_orbit_intersection" : ".114243",
        "jupiter_tisserand_invariant" : "6.492",
        "epoch_osculation" : "2458000.5",
        "eccentricity" : ".3510740779613593",
        "semi_major_axis" : ".9078279924024597",
        "inclination" : "13.60487169786194",
        "ascending_node_longitude" : "75.73323392812384",
        "orbital_period" : "315.9393946249247",
        "perihelion_distance" : ".5891131170222543",
        "perihelion_argument" : "202.7087418515618",
        "aphelion_distance" : "1.226542867782665",
        "perihelion_time" : "2457934.377742024680",
        "mean_anomaly" : "75.34360474221597",
        "mean_motion" : "1.139459042223534",
        "equinox" : "J2000"
      }
    }, {
      "links" : {
        "self" : "https://api.nasa.gov/neo/rest/v1/neo/2152563?api_key=t0TVs3DtDT2H8Oy2Zy8m2eVrNsAVKAexjcZXUckd"
      },
      "neo_reference_id" : "2152563",
      "name" : "152563 (1992 BF)",
      "nasa_jpl_url" : "http://ssd.jpl.nasa.gov/sbdb.cgi?sstr=2152563",
      "absolute_magnitude_h" : 19.8,
      "estimated_diameter" : {
        "kilometers" : {
          "estimated_diameter_min" : 0.2914439045,
          "estimated_diameter_max" : 0.6516883822
        },
        "meters" : {
          "estimated_diameter_min" : 291.4439045349,
          "estimated_diameter_max" : 651.6883821679
        },
        "miles" : {
          "estimated_diameter_min" : 0.1810947904,
          "estimated_diameter_max" : 0.4049402617
        },
        "feet" : {
          "estimated_diameter_min" : 956.1808197541,
          "estimated_diameter_max" : 2138.0853117517
        }
      },
      "is_potentially_hazardous_asteroid" : false,
      "close_approach_data" : [ {
        "close_approach_date" : "1998-06-08",
        "epoch_date_close_approach" : 897289200000,
        "relative_velocity" : {
          "kilometers_per_second" : "10.8507396964",
          "kilometers_per_hour" : "39062.6629071336",
          "miles_per_hour" : "24272.0196269353"
        },
        "miss_distance" : {
          "astronomical" : "0.3399863486",
          "lunar" : "132.2546844482",
          "kilometers" : "50861236",
          "miles" : "31603706"
        },
        "orbiting_body" : "Earth"
      } ],
      "orbital_data" : {
        "orbit_id" : "60",
        "orbit_determination_date" : "2017-09-08 06:18:07",
        "orbit_uncertainty" : "0",
        "minimum_orbit_intersection" : ".0628025",
        "jupiter_tisserand_invariant" : "6.528",
        "epoch_osculation" : "2455256.5",
        "eccentricity" : ".2717792465494954",
        "semi_major_axis" : ".9080475447132269",
        "inclination" : "7.253969612774739",
        "ascending_node_longitude" : "315.4658515665582",
        "orbital_period" : "316.0540133937546",
        "perihelion_distance" : ".6612590671799468",
        "perihelion_argument" : "336.4430104371189",
        "aphelion_distance" : "1.154836022246507",
        "perihelion_time" : "2455101.131056817453",
        "mean_anomaly" : "176.9723438886797",
        "mean_motion" : "1.139045810981351",
        "equinox" : "J2000"
      }
    }, {
      "links" : {
        "self" : "https://api.nasa.gov/neo/rest/v1/neo/2152680?api_key=t0TVs3DtDT2H8Oy2Zy8m2eVrNsAVKAexjcZXUckd"
      },
      "neo_reference_id" : "2152680",
      "name" : "152680 (1998 KJ9)",
      "nasa_jpl_url" : "http://ssd.jpl.nasa.gov/sbdb.cgi?sstr=2152680",
      "absolute_magnitude_h" : 19.4,
      "estimated_diameter" : {
        "kilometers" : {
          "estimated_diameter_min" : 0.3503926411,
          "estimated_diameter_max" : 0.7835017643
        },
        "meters" : {
          "estimated_diameter_min" : 350.3926411083,
          "estimated_diameter_max" : 783.5017643338
        },
        "miles" : {
          "estimated_diameter_min" : 0.2177238258,
          "estimated_diameter_max" : 0.4868452748
        },
        "feet" : {
          "estimated_diameter_min" : 1149.5821926537,
          "estimated_diameter_max" : 2570.543928497
        }
      },
      "is_potentially_hazardous_asteroid" : true,
      "close_approach_data" : [ {
        "close_approach_date" : "1998-06-08",
        "epoch_date_close_approach" : 897289200000,
        "relative_velocity" : {
          "kilometers_per_second" : "20.1144513725",
          "kilometers_per_hour" : "72412.0249411066",
          "miles_per_hour" : "44994.0162752115"
        },
        "miss_distance" : {
          "astronomical" : "0.0832189641",
          "lunar" : "32.372177124",
          "kilometers" : "12449380",
          "miles" : "7735686"
        },
        "orbiting_body" : "Earth"
      } ],
      "orbital_data" : {
        "orbit_id" : "28",
        "orbit_determination_date" : "2017-04-06 09:27:14",
        "orbit_uncertainty" : "0",
        "minimum_orbit_intersection" : ".00539934",
        "jupiter_tisserand_invariant" : "4.390",
        "epoch_osculation" : "2458000.5",
        "eccentricity" : ".6397832053136242",
        "semi_major_axis" : "1.447801625473809",
        "inclination" : "10.93037626309689",
        "ascending_node_longitude" : "98.59539016901543",
        "orbital_period" : "636.3001369292782",
        "perihelion_distance" : ".5215224608699002",
        "perihelion_argument" : "260.0680784769342",
        "aphelion_distance" : "2.374080790077718",
        "perihelion_time" : "2458025.927911379797",
        "mean_anomaly" : "345.6136317353261",
        "mean_motion" : ".565770741048909",
        "equinox" : "J2000"
      }
    } ]
  }
}